SAUDISAT 2              
1 28371U 04025F   26179.98086787  .00000234  00000+0  63316-4 0  9991
2 28371  98.5509 180.2676 0023445 260.0829  99.7721 14.56690181167464
COSMOS 2407             
1 28380U 04028A   26179.77132227  .00000053  00000+0  38561-4 0  9995
2 28380  82.9602  66.2545 0038254 218.4787 207.5836 13.76335518101473
COSMOS 2414             
1 28521U 05002A   26179.92712388  .00000061  00000+0  37907-4 0  9996
2 28521  82.9491  34.7649 0038844 296.9478  62.7719 13.87927166 85441
INMARSAT 4-F1           
1 28628U 05009A   26179.62732872  .00000040  00000+0  00000+0 0  9994
2 28628   5.1829  42.7740 0002980  54.7119 223.1875  1.00272378 77780
SJ-7                    
1 28737U 05024A   26179.79608477  .00007002  00000+0  31160-3 0  9993
2 28737  97.7275 210.2124 0015060 358.4479   1.6707 15.21712785149790
CUBESAT XI-V            
1 28895U 05043F   26179.68160511  .00001412  00000+0  22953-3 0  9998
2 28895  98.2995 335.5454 0014446 164.3904 195.7751 14.72661458103442
HINODE (SOLAR-B)        
1 29479U 06041A   26179.97213271  .00000680  00000+0  12516-3 0  9990
2 29479  98.0544 195.9509 0016043 248.9393 111.0097 14.68638219 56607
SHIJIAN-6 02B (SJ-6 02B)
1 29506U 06046B   26180.00945845  .00000936  00000+0  77124-4 0  9992
2 29506  97.7156 208.9950 0015159  27.0584 333.1427 15.01404059 72516
DMSP 5D-3 F17 (USA 191) 
1 29522U 06050A   26179.90776558  .00000036  00000+0  41058-4 0  9993
2 29522  98.7378 186.2380 0010676  28.6287 331.5471 14.14994429 14089
LAPAN-TUBSAT            
1 29709U 07001A   26179.97113102  .00000946  00000+0  11485-3 0  9994
2 29709  98.1341 179.4607 0012932 141.6975 218.5161 14.85964036 52905
HAIYANG-1B              
1 31113U 07010A   26179.89139204  .00000085  00000+0  48004-4 0  9990
2 31113  98.3499 161.2829 0013804 161.5136 198.6552 14.31029689  2316
COSMO-SKYMED 2          
1 32376U 07059A   26179.90787506  .00000385  00000+0  54940-4 0  9990
2 32376  97.8887   3.3358 0001329  89.9184 270.2182 14.82154487  3746
CARTOSAT-2A             
1 32783U 08021A   26179.95174223  .00000516  00000+0  76073-4 0  9990
2 32783  97.7633 228.2584 0013305  74.7727 285.4955 14.79254620980541
CUTE-1.7+APD II (CO-65) 
1 32785U 08021C   26179.91553848  .00004670  00000+0  29489-3 0  9995
2 32785  97.8271 161.5787 0008562   1.2386 358.8861 15.09559374986962
SEEDS II (CO-66)        
1 32791U 08021J   26179.95056021  .00017427  00000+0  54621-3 0  9997
2 32791  97.7514 178.4126 0000917 200.7321 159.3883 15.33144634989094
YUBILEINY (RS30)        
1 32953U 08025A   26179.92873647  .00000083  00000+0  52497-3 0  9998
2 32953  82.5041 348.1349 0018523 286.7909  73.1139 12.43180281821157
FENGYUN 3A              
1 32958U 08026A   26179.81807552  .00000054  00000+0  46229-4 0  9999
2 32958  98.6885 120.4338 0009882  93.7392 266.4914 14.19573428937054
HUANJING 1A (HJ-1A)     
1 33320U 08041A   26179.96605628  .00000779  00000+0  99373-4 0  9998
2 33320  97.6680 165.3487 0020554  98.6985 261.6560 14.84011184960153
HUANJING 1B (HJ-1B)     
1 33321U 08041B   26179.94050434  .00001325  00000+0  16605-3 0  9990
2 33321  97.6517 168.4604 0037150 142.6604 217.7203 14.83338721960150
SHIJIAN-6 03A (SJ-6 03A)
1 33408U 08053A   26179.92012020  .00004091  00000+0  20888-3 0  9997
2 33408  97.8405 213.6485 0010510 340.0998  19.9823 15.17272031964743
SHIJIAN-6 03B (SJ-6 03B)
1 33409U 08053B   26180.00630013  .00001908  00000+0  14101-3 0  9992
2 33409  97.8562 200.0925 0019436   4.9326 355.2087 15.04336949964523
