OBJECT_NAME,OBJECT_ID,EPOCH,MEAN_MOTION,ECCENTRICITY,INCLINATION,RA_OF_ASC_NODE,ARG_OF_PERICENTER,MEAN_ANOMALY,EPHEMERIS_TYPE,CLASSIFICATION_TYPE,NORAD_CAT_ID,ELEMENT_SET_NO,REV_AT_EPOCH,BSTAR,MEAN_MOTION_DOT,MEAN_MOTION_DDOT
SAUDISAT 2,2004-025F,2026-06-28T23:32:26.983968,14.56690181,.00234455,98.5509,180.2676,260.0829,99.7721,0,U,28371,999,16746,.6331579E-4,.234E-5,0
COSMOS 2407,2004-028A,2026-06-28T18:30:42.244128,13.76335518,.0038254,82.9602,66.2545,218.4787,207.5836,0,U,28380,999,10147,.38561161E-4,.53E-6,0
COSMOS 2414,2005-002A,2026-06-28T22:15:03.503232,13.87927166,.00388447,82.9491,34.7649,296.9478,62.7719,0,U,28521,999,8544,.37907383E-4,.61E-6,0
INMARSAT 4-F1,2005-009A,2026-06-28T15:03:21.201408,1.00272378,.00029808,5.1829,42.7740,54.7119,223.1875,0,U,28628,999,7778,0,.4E-6,0
SJ-7,2005-024A,2026-06-28T19:06:21.724128,15.21712785,.00150609,97.7275,210.2124,358.4479,1.6707,0,U,28737,999,14979,.31159815E-3,.7002E-4,0
CUBESAT XI-V,2005-043F,2026-06-28T16:21:30.681504,14.72661458,.00144469,98.2995,335.5454,164.3904,195.7751,0,U,28895,999,10344,.22952897E-3,.1412E-4,0
HINODE (SOLAR-B),2006-041A,2026-06-28T23:19:52.266144,14.68638219,.00160437,98.0544,195.9509,248.9393,111.0097,0,U,29479,999,5660,.1251623E-3,.68E-5,0
SHIJIAN-6 02B (SJ-6 02B),2006-046B,2026-06-29T00:13:37.210080,15.01404059,.00151591,97.7156,208.9950,27.0584,333.1427,0,U,29506,999,7251,.77123553E-4,.936E-5,0
DMSP 5D-3 F17 (USA 191),2006-050A,2026-06-28T21:47:10.946112,14.14994429,.00106766,98.7378,186.2380,28.6287,331.5471,0,U,29522,999,1408,.41057519E-4,.36E-6,0
LAPAN-TUBSAT,2007-001A,2026-06-28T23:18:25.720128,14.85964036,.00129324,98.1341,179.4607,141.6975,218.5161,0,U,29709,999,5290,.11484919E-3,.946E-5,0
HAIYANG-1B,2007-010A,2026-06-28T21:23:36.272256,14.31029689,.00138044,98.3499,161.2829,161.5136,198.6552,0,U,31113,999,231,.48004093E-4,.85E-6,0
COSMO-SKYMED 2,2007-059A,2026-06-28T21:47:20.405184,14.82154487,.00013292,97.8887,3.3358,89.9184,270.2182,0,U,32376,999,374,.54940321E-4,.385E-5,0
CARTOSAT-2A,2008-021A,2026-06-28T22:50:30.528672,14.79254620,.00133056,97.7633,228.2584,74.7727,285.4955,0,U,32783,999,98054,.76073341E-4,.516E-5,0
CUTE-1.7+APD II (CO-65),2008-021C,2026-06-28T21:58:22.524672,15.09559374,.0008562,97.8271,161.5787,1.2386,358.8861,0,U,32785,999,98696,.29488651E-3,.467E-4,0
SEEDS II (CO-66),2008-021J,2026-06-28T22:48:48.402144,15.33144634,.0000917,97.7514,178.4126,200.7321,159.3883,0,U,32791,999,98909,.54621038E-3,.17427E-3,0
YUBILEINY (RS30),2008-025A,2026-06-28T22:17:22.831008,12.43180281,.00185239,82.5041,348.1349,286.7909,73.1139,0,U,32953,999,82115,.52496551E-3,.83E-6,0
FENGYUN 3A,2008-026A,2026-06-28T19:38:01.724928,14.19573428,.00098827,98.6885,120.4338,93.7392,266.4914,0,U,32958,999,93705,.46229345E-4,.54E-6,0
HUANJING 1A (HJ-1A),2008-041A,2026-06-28T23:11:07.262592,14.84011184,.00205545,97.6680,165.3487,98.6985,261.6560,0,U,33320,999,96015,.99373052E-4,.779E-5,0
HUANJING 1B (HJ-1B),2008-041B,2026-06-28T22:34:19.574976,14.83338721,.003715,97.6517,168.4604,142.6604,217.7203,0,U,33321,999,96015,.1660479E-3,.1325E-4,0
SHIJIAN-6 03A (SJ-6 03A),2008-053A,2026-06-28T22:04:58.385280,15.17272031,.00105102,97.8405,213.6485,340.0998,19.9823,0,U,33408,999,96474,.20888331E-3,.4091E-4,0
SHIJIAN-6 03B (SJ-6 03B),2008-053B,2026-06-29T00:09:04.331232,15.04336949,.00194361,97.8562,200.0925,4.9326,355.2087,0,U,33409,999,96452,.14100677E-3,.1908E-4,0
